IXPE                    
1 49954U 21121A   24296.58334491  .00011962  00000+0  84874-3 0  9990
2 49954   0.2284 166.2983 0009521  13.1963 151.4268 15.00838540157053
